ORBCOMM FM05            
1 25117U 97084F   25005.86998663  .00003959  00000+0  11667-2 0  9999
2 25117  45.0150  66.8342 0001506 211.4504 148.6257 14.44892343418065
ORBCOMM FM06            
1 25118U 97084G   25005.91130326  .00003916  00000+0  11503-2 0  9992
2 25118  45.0142  66.5729 0001919 242.6672 286.8531 14.45071688418076
ORBCOMM FM07            
1 25119U 97084H   25006.16435615  .00004093  00000+0  12029-2 0  9991
2 25119  45.0136  66.0851 0001300 180.7615 179.3234 14.44968525418096
ORBCOMM FM03            
1 25158U 98007B   25005.67894578  .00004192  00000+0  15334-2 0  9994
2 25158 107.9671 161.9072 0046093 176.3010 183.8478 14.33775993400745
ORBCOMM FM04            
1 25159U 98007C   25005.69227426  .00003598  00000+0  13188-2 0  9993
2 25159 107.9659 165.0433 0041665 174.0978 186.0660 14.34040586400928
ORBCOMM FM17            
1 25413U 98046A   25005.81955919  .00002459  00000+0  91395-3 0  9990
2 25413  44.9947 303.5768 0001498  79.8485 280.2531 14.34484985379852
ORBCOMM FM18            
1 25414U 98046B   25005.80365144  .00002911  00000+0  10059-2 0  9995
2 25414  44.9909 225.2528 0004600 174.3988 185.6912 14.37700918380877
ORBCOMM FM19            
1 25415U 98046C   25006.03659377  .00003238  00000+0  11175-2 0  9999
2 25415  44.9920 225.8950 0003506 164.6722 349.6735 14.37518613381064
